ORBCOMM FM115           
1 41186U 15081H   25342.85080311  .00001785  00000+0  37943-3 0  9996
2 41186  46.9991 288.6302 0000499 209.9471 150.1388 14.62910463533343
ORBCOMM FM108           
1 41187U 15081J   25342.73965334  .00002166  00000+0  49767-3 0  9992
2 41187  47.0052   2.4216 0002109  11.4194 348.6739 14.58541923532279
ORBCOMM FM117           
1 41188U 15081K   25342.43156503  .00002000  00000+0  46204-3 0  9990
2 41188  47.0022   2.5783 0002376  21.8480 338.2507 14.58566462532279
ORBCOMM FM116           
1 41189U 15081L   25342.75436109  .00001758  00000+0  41071-3 0  9995
2 41189  47.0021  90.8222 0002482 251.5101 108.5515 14.58559285531133
